[{"OBJECT_NAME":"STARLINK-4271","OBJECT_ID":"2022-076AC","EPOCH":"2025-09-19T02:05:27.939552","MEAN_MOTION":15.08829758,"ECCENTRICITY":0.0002358,"INCLINATION":53.2166,"RA_OF_ASC_NODE":144.4725,"ARG_OF_PERICENTER":95.8953,"MEAN_ANOMALY":264.2308,"EPHEMERIS_TYPE":0,"CLASSIFICATION_TYPE":"U","NORAD_CAT_ID":53012,"ELEMENT_SET_NO":999,"REV_AT_EPOCH":17694,"BSTAR":-8.6426753e-5,"MEAN_MOTION_DOT":-1.663e-5,"MEAN_MOTION_DDOT":0},{"OBJECT_NAME":"STARLINK-4177","OBJECT_ID":"2022-076AD","EPOCH":"2025-09-18T22:24:13.034016","MEAN_MOTION":15.08832334,"ECCENTRICITY":0.00014584,"INCLINATION":53.2169,"RA_OF_ASC_NODE":135.1633,"ARG_OF_PERICENTER":99.7275,"MEAN_ANOMALY":260.3882,"EPHEMERIS_TYPE":0,"CLASSIFICATION_TYPE":"U","NORAD_CAT_ID":53013,"ELEMENT_SET_NO":999,"REV_AT_EPOCH":17705,"BSTAR":3.6587728e-5,"MEAN_MOTION_DOT":2.94e-6,"MEAN_MOTION_DDOT":0},{"OBJECT_NAME":"STARLINK-4183","OBJECT_ID":"2022-076AE","EPOCH":"2025-09-19T01:56:11.172768","MEAN_MOTION":15.08835327,"ECCENTRICITY":0.00013374,"INCLINATION":53.2163,"RA_OF_ASC_NODE":134.5036,"ARG_OF_PERICENTER":85.7353,"MEAN_ANOMALY":274.3792,"EPHEMERIS_TYPE":0,"CLASSIFICATION_TYPE":"U","NORAD_CAT_ID":53014,"ELEMENT_SET_NO":999,"REV_AT_EPOCH":17707,"BSTAR":8.248199e-5,"MEAN_MOTION_DOT":1.025e-5,"MEAN_MOTION_DDOT":0},{"OBJECT_NAME":"STARLINK-4262","OBJECT_ID":"2022-076AF","EPOCH":"2025-09-18T22:13:36.810336","MEAN_MOTION":15.08837548,"ECCENTRICITY":0.00013355,"INCLINATION":53.2158,"RA_OF_ASC_NODE":135.2003,"ARG_OF_PERICENTER":76.8346,"MEAN_ANOMALY":283.2795,"EPHEMERIS_TYPE":0,"CLASSIFICATION_TYPE":"U","NORAD_CAT_ID":53015,"ELEMENT_SET_NO":999,"REV_AT_EPOCH":17705,"BSTAR":7.0500105e-5,"MEAN_MOTION_DOT":8.34e-6,"MEAN_MOTION_DDOT":0},{"OBJECT_NAME":"STARLINK-4283","OBJECT_ID":"2022-076AG","EPOCH":"2025-09-19T01:40:16.988448","MEAN_MOTION":15.08838067,"ECCENTRICITY":0.00012561,"INCLINATION":53.2172,"RA_OF_ASC_NODE":134.5547,"ARG_OF_PERICENTER":95.5357,"MEAN_ANOMALY":264.5778,"EPHEMERIS_TYPE":0,"CLASSIFICATION_TYPE":"U","NORAD_CAT_ID":53016,"ELEMENT_SET_NO":999,"REV_AT_EPOCH":17707,"BSTAR":3.6027309e-5,"MEAN_MOTION_DOT":2.86e-6,"MEAN_MOTION_DDOT":0},{"OBJECT_NAME":"STARLINK-4281","OBJECT_ID":"2022-076AH","EPOCH":"2025-09-19T01:19:05.429280","MEAN_MOTION":15.08849044,"ECCENTRICITY":0.00014442,"INCLINATION":53.2148,"RA_OF_ASC_NODE":134.6198,"ARG_OF_PERICENTER":81.4695,"MEAN_ANOMALY":278.646,"EPHEMERIS_TYPE":0,"CLASSIFICATION_TYPE":"U","NORAD_CAT_ID":53017,"ELEMENT_SET_NO":999,"REV_AT_EPOCH":17708,"BSTAR":0.00040138684,"MEAN_MOTION_DOT":6.107e-5,"MEAN_MOTION_DDOT":0},{"OBJECT_NAME":"STARLINK-4279","OBJECT_ID":"2022-076AJ","EPOCH":"2025-09-19T00:36:46.636128","MEAN_MOTION":15.08819805,"ECCENTRICITY":0.00013053,"INCLINATION":53.2167,"RA_OF_ASC_NODE":135.0145,"ARG_OF_PERICENTER":88.912,"MEAN_ANOMALY":271.2022,"EPHEMERIS_TYPE":0,"CLASSIFICATION_TYPE":"U","NORAD_CAT_ID":53018,"ELEMENT_SET_NO":999,"REV_AT_EPOCH":17706,"BSTAR":-6.3370215e-5,"MEAN_MOTION_DOT":-1.296e-5,"MEAN_MOTION_DDOT":0},{"OBJECT_NAME":"STARLINK-4282","OBJECT_ID":"2022-076AK","EPOCH":"2025-09-19T01:08:29.044032","MEAN_MOTION":15.08828361,"ECCENTRICITY":0.00014422,"INCLINATION":53.2168,"RA_OF_ASC_NODE":134.655,"ARG_OF_PERICENTER":69.501,"MEAN_ANOMALY":290.6137,"EPHEMERIS_TYPE":0,"CLASSIFICATION_TYPE":"U","NORAD_CAT_ID":53019,"ELEMENT_SET_NO":999,"REV_AT_EPOCH":17707,"BSTAR":-2.5654086e-5,"MEAN_MOTION_DOT":-6.96e-6,"MEAN_MOTION_DDOT":0},{"OBJECT_NAME":"STARLINK-4287","OBJECT_ID":"2022-076AL","EPOCH":"2025-09-18T22:18:54.568800","MEAN_MOTION":15.08843702,"ECCENTRICITY":0.00014609,"INCLINATION":53.2166,"RA_OF_ASC_NODE":135.1844,"ARG_OF_PERICENTER":88.8335,"MEAN_ANOMALY":271.2825,"EPHEMERIS_TYPE":0,"CLASSIFICATION_TYPE":"U","NORAD_CAT_ID":53020,"ELEMENT_SET_NO":999,"REV_AT_EPOCH":17705,"BSTAR":0.00014443246,"MEAN_MOTION_DOT":2.012e-5,"MEAN_MOTION_DDOT":0},{"OBJECT_NAME":"STARLINK-4216","OBJECT_ID":"2022-076AN","EPOCH":"2025-09-18T22:03:01.237248","MEAN_MOTION":15.0883919,"ECCENTRICITY":0.0001318,"INCLINATION":53.2167,"RA_OF_ASC_NODE":135.2298,"ARG_OF_PERICENTER":79.5617,"MEAN_ANOMALY":280.5524,"EPHEMERIS_TYPE":0,"CLASSIFICATION_TYPE":"U","NORAD_CAT_ID":53022,"ELEMENT_SET_NO":999,"REV_AT_EPOCH":17705,"BSTAR":0.00017136711,"MEAN_MOTION_DOT":2.44e-5,"MEAN_MOTION_DDOT":0},{"OBJECT_NAME":"STARLINK-4284","OBJECT_ID":"2022-076AP","EPOCH":"2025-09-19T00:47:17.600640","MEAN_MOTION":15.08857049,"ECCENTRICITY":0.00014455,"INCLINATION":53.2163,"RA_OF_ASC_NODE":134.7058,"ARG_OF_PERICENTER":90.2405,"MEAN_ANOMALY":269.8753,"EPHEMERIS_TYPE":0,"CLASSIFICATION_TYPE":"U","NORAD_CAT_ID":53023,"ELEMENT_SET_NO":999,"REV_AT_EPOCH":17707,"BSTAR":0.00013949435,"MEAN_MOTION_DOT":1.934e-5,"MEAN_MOTION_DDOT":0},{"OBJECT_NAME":"STARLINK-4289","OBJECT_ID":"2022-076AQ","EPOCH":"2025-09-19T00:52:37.347168","MEAN_MOTION":15.0882371,"ECCENTRICITY":0.0001282,"INCLINATION":53.2167,"RA_OF_ASC_NODE":134.7011,"ARG_OF_PERICENTER":98.6538,"MEAN_ANOMALY":261.46,"EPHEMERIS_TYPE":0,"CLASSIFICATION_TYPE":"U","NORAD_CAT_ID":53024,"ELEMENT_SET_NO":999,"REV_AT_EPOCH":17707,"BSTAR":-2.670765e-6,"MEAN_MOTION_DOT":-3.3e-6,"MEAN_MOTION_DDOT":0},{"OBJECT_NAME":"STARLINK-4218","OBJECT_ID":"2022-076AR","EPOCH":"2025-09-19T00:42:00.035712","MEAN_MOTION":15.08837545,"ECCENTRICITY":0.00011879,"INCLINATION":53.2156,"RA_OF_ASC_NODE":134.7335,"ARG_OF_PERICENTER":90.9287,"MEAN_ANOMALY":269.1842,"EPHEMERIS_TYPE":0,"CLASSIFICATION_TYPE":"U","NORAD_CAT_ID":53025,"ELEMENT_SET_NO":999,"REV_AT_EPOCH":17707,"BSTAR":0.00011205095,"MEAN_MOTION_DOT":1.496e-5,"MEAN_MOTION_DDOT":0},{"OBJECT_NAME":"STARLINK-4119","OBJECT_ID":"2022-076AS","EPOCH":"2025-09-19T00:48:39.420576","MEAN_MOTION":15.08835271,"ECCENTRICITY":0.0001302,"INCLINATION":53.2162,"RA_OF_ASC_NODE":134.6076,"ARG_OF_PERICENTER":88.126,"MEAN_ANOMALY":271.9881,"EPHEMERIS_TYPE":0,"CLASSIFICATION_TYPE":"U","NORAD_CAT_ID":53026,"ELEMENT_SET_NO":999,"REV_AT_EPOCH":17707,"BSTAR":8.1222035e-5,"MEAN_MOTION_DOT":1.005e-5,"MEAN_MOTION_DDOT":0},{"OBJECT_NAME":"STARLINK-4158","OBJECT_ID":"2022-076AT","EPOCH":"2025-09-18T21:15:20.760480","MEAN_MOTION":15.0882306,"ECCENTRICITY":0.00015236,"INCLINATION":53.2162,"RA_OF_ASC_NODE":135.3805,"ARG_OF_PERICENTER":105.0735,"MEAN_ANOMALY":255.0426,"EPHEMERIS_TYPE":0,"CLASSIFICATION_TYPE":"U","NORAD_CAT_ID":53027,"ELEMENT_SET_NO":999,"REV_AT_EPOCH":17705,"BSTAR":0.00020134118,"MEAN_MOTION_DOT":2.916e-5,"MEAN_MOTION_DDOT":0},{"OBJECT_NAME":"STARLINK-4143","OBJECT_ID":"2022-076AV","EPOCH":"2025-09-19T00:06:13.711104","MEAN_MOTION":15.08836166,"ECCENTRICITY":0.00013159,"INCLINATION":53.2165,"RA_OF_ASC_NODE":124.8462,"ARG_OF_PERICENTER":84.4095,"MEAN_ANOMALY":275.7047,"EPHEMERIS_TYPE":0,"CLASSIFICATION_TYPE":"U","NORAD_CAT_ID":53029,"ELEMENT_SET_NO":999,"REV_AT_EPOCH":17720,"BSTAR":4.4168646e-5,"MEAN_MOTION_DOT":4.15e-6,"MEAN_MOTION_DDOT":0}]
