STARLINK-4271           
1 53012U 22076AC  25262.08712893 -.00001663  00000+0 -86427-4 0  9991
2 53012  53.2166 144.4725 0002358  95.8953 264.2308 15.08829758176945
STARLINK-4177           
1 53013U 22076AD  25261.93348419  .00000294  00000+0  36588-4 0  9994
2 53013  53.2169 135.1633 0001458  99.7275 260.3882 15.08832334177055
STARLINK-4183           
1 53014U 22076AE  25262.08068487  .00001025  00000+0  82482-4 0  9993
2 53014  53.2163 134.5036 0001337  85.7353 274.3792 15.08835327177070
STARLINK-4262           
1 53015U 22076AF  25261.92612049  .00000834  00000+0  70500-4 0  9990
2 53015  53.2158 135.2003 0001335  76.8346 283.2795 15.08837548177055
STARLINK-4283           
1 53016U 22076AG  25262.06964107  .00000286  00000+0  36027-4 0  9999
2 53016  53.2172 134.5547 0001256  95.5357 264.5778 15.08838067177071
STARLINK-4281           
1 53017U 22076AH  25262.05492395  .00006107  00000+0  40139-3 0  9990
2 53017  53.2148 134.6198 0001444  81.4695 278.6460 15.08849044177088
STARLINK-4279           
1 53018U 22076AJ  25262.02553977 -.00001296  00000+0 -63370-4 0  9991
2 53018  53.2167 135.0145 0001305  88.9120 271.2022 15.08819805177061
STARLINK-4282           
1 53019U 22076AK  25262.04755838 -.00000696  00000+0 -25654-4 0  9990
2 53019  53.2168 134.6550 0001442  69.5010 290.6137 15.08828361177073
STARLINK-4287           
1 53020U 22076AL  25261.92979825  .00002012  00000+0  14443-3 0  9997
2 53020  53.2166 135.1844 0001460  88.8335 271.2825 15.08843702177052
STARLINK-4216           
1 53022U 22076AN  25261.91876432  .00002440  00000+0  17137-3 0  9996
2 53022  53.2167 135.2298 0001318  79.5617 280.5524 15.08839190177056
STARLINK-4284           
1 53023U 22076AP  25262.03284260  .00001934  00000+0  13949-3 0  9997
2 53023  53.2163 134.7058 0001445  90.2405 269.8753 15.08857049177076
STARLINK-4289           
1 53024U 22076AQ  25262.03654337 -.00000330  00000+0 -26708-5 0  9994
2 53024  53.2167 134.7011 0001282  98.6538 261.4600 15.08823710177075
STARLINK-4218           
1 53025U 22076AR  25262.02916708  .00001496  00000+0  11205-3 0  9993
2 53025  53.2156 134.7335 0001187  90.9287 269.1842 15.08837545177077
STARLINK-4119           
1 53026U 22076AS  25262.03378959  .00001005  00000+0  81222-4 0  9998
2 53026  53.2162 134.6076 0001302  88.1260 271.9881 15.08835271177073
STARLINK-4158           
1 53027U 22076AT  25261.88565695  .00002916  00000+0  20134-3 0  9992
2 53027  53.2162 135.3805 0001523 105.0735 255.0426 15.08823060177052
STARLINK-4143           
1 53029U 22076AV  25262.00432536  .00000415  00000+0  44169-4 0  9993
2 53029  53.2165 124.8462 0001315  84.4095 275.7047 15.08836166177203
